     2.11           N: GPS NAV DATA                         RINEX VERSION / TYPE
teqc  2019Feb25                         20221121 12:28:48UTCPGM / RUN BY / DATE
OSX ker:10.11.6|Core i5|gcc 4.3 -m64|OSX ker:10.10+|=+      COMMENT
    1.2107D-08  0.0000D+00 -1.1921D-07  0.0000D+00          ION ALPHA
    9.4208D+04  0.0000D+00 -1.9661D+05  0.0000D+00          ION BETA
    2.793967723846D-09 1.243449787580D-14   405504     1555 DELTA-UTC: A0,A1,T,W
                                                            END OF HEADER
29 09 10 28 10  0  0.0 6.969925016165D-05 3.069544618484D-12 0.000000000000D+00
    7.200000000000D+01-3.650000000000D+01 4.456971365033D-09 2.043874573386D+00
   -1.939013600349D-06 2.946392749436D-03 1.000985503197D-05 5.153585964203D+03
    2.952000000000D+05 7.078051567078D-08 2.109869921031D+00 1.303851604462D-08
    9.600345255200D-01 1.845625000000D+02-1.271726300414D+00-7.884256982379D-09
   -1.821504444400D-10 1.000000000000D+00 1.555000000000D+03 0.000000000000D+00
    2.000000000000D+00 0.000000000000D+00-8.847564458847D-09 7.200000000000D+01
    2.915820000000D+05 4.000000000000D+00
